# From MPC106342
C/1995 O1 (Hale-Bopp),e,89.1493,283.0234,130.4476,177.6768,0.0004162,0.99496455,0.0000,03/29.7278/1997,2000,g -2.0,4.0
# From MPC 27287
C/1996 B2 (Hyakutake),e,125.6367,186.7736,129.3887,1527,0.0000165,0.99985089,0.0000,04/20.2058/1996,2000,g 10.0,4.0
# From NK 1615
P/1996 R2 (Lagerkvist),e,2.6007,40.0137,333.3492,3.774907,0.1343831,0.31438359,141.0762,12/28.0/2021,2000,g 11.5,4.0
# From MPC 30063
P/1997 B1 (Kobayashi),e,12.3394,328.8820,183.3200,8.582155,0.0392021,0.76041162,356.4438,12/28.0/2021,2000,g 15.0,2.0
# From MPC 75703
P/1998 VS24 (LINEAR),e,5.0265,159.0386,244.6054,4.527107,0.1023229,0.24264036,147.2718,12/28.0/2021,2000,g 13.0,2.0
# From NK 731
P/1999 RO28 (LONEOS),e,7.5670,137.8839,231.2704,3.426670,0.1553802,0.67238240,142.2527,12/28.0/2021,2000,g 20.0,2.0
# From MPC 75704
P/1999 XN120 (Catalina),e,5.0298,285.2961,161.7679,4.178923,0.1153739,0.21026175,191.8709,12/28.0/2021,2000,g 13.5,2.0
# From NK 744
P/2000 R2 (LINEAR),e,11.6871,160.2856,176.5624,3.467147,0.1526672,0.53157961,141.1173,12/28.0/2021,2000,g 18.0,4.0
# From MPC 43019
P/2001 H5 (NEAT),e,8.3671,328.6847,224.8108,6.097071,0.0654670,0.59827164,148.2332,12/28.0/2021,2000,g 12.0,4.0
# From MPC 75704
P/2001 Q6 (NEAT),e,56.9110,22.1736,42.9305,7.955296,0.0439258,0.82313027,325.1848,12/28.0/2021,2000,g 13.5,4.0
# From MPC 47727
P/2002 EJ57 (LINEAR),e,4.9764,330.3221,167.3305,6.467550,0.0599231,0.59230528,77.2619,12/28.0/2021,2000,g 12.5,4.0
# From MPEC 2021-W31
C/2002 O4 (Hoenig),h,09/30.4406/2002,73.1860,322.0377,105.4027,1.000255,0.761431,2000,9.5,4.0
# From MPC109588
P/2002 T6 (NEAT-LINEAR),e,10.8425,206.1652,219.6586,7.699439,0.0461334,0.56130395,316.8062,12/28.0/2021,2000,g 10.5,4.0
# From MPC 75007
C/2002 VQ94 (LINEAR),e,70.6462,35.0929,100.0710,184.5975,0.0003930,0.96304223,2.2844,12/28.0/2021,2000,g  9.5,2.0
# From MPC 50354
P/2003 F2 (NEAT),e,11.6080,359.0115,192.2044,6.502308,0.0594433,0.54195273,46.1489,12/28.0/2021,2000,g 16.5,2.0
# From MPC 50139
P/2003 QX29 (NEAT),e,11.3909,264.5461,37.5690,8.022749,0.0433730,0.47287515,302.8847,12/28.0/2021,2000,g  8.5,4.0
# From MPC105235
P/2003 T12 (SOHO),e,11.0214,174.5817,219.7478,2.585793,0.2370355,0.76991292,142.2230,12/28.0/2021,2000,g 17.0,4.0
# From MPC 82312
P/2004 A1 (LONEOS),e,10.5517,124.8529,21.1987,7.965312,0.0438430,0.30948975,278.9347,12/28.0/2021,2000,g  6.5,4.0
# From MPC 54558
P/2004 DO29 (Spacewatch-LINEAR),e,14.5323,147.3726,40.6052,7.289267,0.0500816,0.44110915,315.4618,12/28.0/2021,2000,g 13.5,2.0
# From MPC 54823
P/2004 FY140 (LINEAR),e,2.1348,326.7682,242.2931,4.904830,0.0907336,0.16799452,213.4329,12/28.0/2021,2000,g 12.5,2.0
# From MPC 53304
P/2004 R3 (LINEAR-NEAT),e,12.7871,305.4006,37.8624,4.777904,0.0943730,0.25759965,9.1324,12/28.0/2021,2000,g 14.5,4.0
# From MPC 55521
P/2004 V3 (Siding Spring),e,50.4432,356.1283,322.4097,7.136321,0.0517002,0.44621337,324.0915,12/28.0/2021,2000,g 11.5,4.0
# From MPC 75705
P/2004 V5 (LINEAR-Hill),e,19.3402,47.7904,87.6404,7.983215,0.0436956,0.44391059,270.0807,12/28.0/2021,2000,g  8.0,4.0
# From MPC 54164
P/2005 E1 (Tubbiolo),e,4.2637,335.5695,193.9825,7.044328,0.0527163,0.37523897,326.2584,12/28.0/2021,2000,g 10.0,4.0
# From MPC 54823
P/2005 GF8 (LONEOS),e,1.1855,314.5872,284.5668,5.809249,0.0703921,0.51704410,57.9371,12/28.0/2021,2000,g 11.5,4.0
# From MPC 79019
P/2005 J1 (McNaught),e,31.7524,268.8206,338.9552,3.571045,0.1460532,0.56934041,171.2984,12/28.0/2021,2000,g 16.5,4.0
# From MPC 74246
P/2005 L1 (McNaught),e,7.7384,138.2484,149.7525,3.978168,0.1242165,0.21003569,6.8483,12/28.0/2021,2000,g  9.5,4.0
# From MPC 75706
P/2005 S2 (Skiff),e,3.1357,161.2184,229.2397,8.011174,0.0434670,0.19793778,248.0430,12/28.0/2021,2000,g  7.5,4.0
# From MPC 75706
P/2005 SB216 (LONEOS),e,24.0992,1.1541,83.3172,7.137124,0.0516915,0.46408502,283.4429,12/28.0/2021,2000,g 12.0,2.0
# From MPEC 2021-W47
P/2005 T2 (Christensen),e,8.2888,260.1567,58.9277,3.846556,0.1306460,0.41583188,82.5191,12/28.0/2021,2000,g 14.5,4.0
# From MPC 73461
P/2005 T3 (Read),e,6.2236,27.6982,6.7245,7.585444,0.0471772,0.17485340,280.1596,12/28.0/2021,2000,g  9.0,4.0
# From MPC 73461
P/2005 T4 (SWAN),e,160.2394,25.8322,41.7403,9.360864,0.0344136,0.92971140,204.0675,12/28.0/2021,2000,g 15.0,4.0
# From MPC 75706
P/2005 T5 (Broughton),e,21.3692,56.9996,304.6179,7.286217,0.0501131,0.55253453,296.6498,12/28.0/2021,2000,g 11.0,4.0
# From MPC 75706
P/2005 Y2 (McNaught),e,19.0455,94.2910,193.7996,6.360622,0.0614405,0.46925471,26.7611,12/28.0/2021,2000,g  9.0,4.0
# From MPC 56954
P/2006 F4 (Spacewatch),e,12.4406,183.8237,30.7706,3.517288,0.1494143,0.34113199,131.2539,12/28.0/2021,2000,g 15.0,4.0
# From MPC 75707
P/2006 HR30 (Siding Spring),e,31.8387,309.8811,117.3153,7.810506,0.0451529,0.84264110,248.0912,12/28.0/2021,2000,g 11.0,4.0
# From MPC 75707
P/2007 A2 (Christensen),e,26.4874,300.9104,186.7119,6.332002,0.0618575,0.55801911,339.2090,12/28.0/2021,2000,g 13.5,4.0
# From MPC 75707
P/2007 C2 (Catalina),e,8.6205,275.4145,180.1179,6.993744,0.0532892,0.47147446,277.5255,12/28.0/2021,2000,g 10.0,4.0
# From MPC 84315
C/2007 D1 (LINEAR),e,41.5017,171.2286,339.9223,1298,0.0000211,0.99321396,0.0000,06/07.5292/2007,2000,g  3.5,4.0
# From MPC 82314
P/2007 K2 (Gibbs),e,7.6291,188.6377,347.4023,7.269436,0.0502867,0.68296157,268.0188,12/28.0/2021,2000,g 14.0,4.0
# From MPC 60925
P/2007 Q2 (Gilmore),e,10.2026,172.1563,162.8054,5.654415,0.0733031,0.67012159,29.0286,12/28.0/2021,2000,g 16.0,4.0
# From MPC 73462
P/2007 S1 (Zhao),e,5.9640,141.3702,245.4014,3.821264,0.1319452,0.33973865,322.5886,12/28.0/2021,2000,g 13.0,4.0
# From MPC 61994
P/2007 T2 (Kowalski),e,9.7513,3.3762,359.6472,3.046468,0.1853571,0.78556336,232.1834,12/28.0/2021,2000,g 18.5,4.0
# From MPC 75709
P/2008 L2 (Hill),e,25.8668,218.0141,141.2453,6.027463,0.0666043,0.61332675,326.7602,12/28.0/2021,2000,g 12.5,4.0
# From MPC 64114
P/2008 O3 (Boattini),e,32.2996,47.5748,341.1263,8.218746,0.0418308,0.69591397,207.5879,12/28.0/2021,2000,g 13.0,4.0
# From MPEC 2021-X81
P/2008 WZ96 (LINEAR),e,7.1144,56.4185,341.9889,3.487201,0.1513522,0.46943898,18.7544,12/28.0/2021,2000,g 17.2,4.0
# From MPC 75710
P/2008 Y3 (McNaught),e,38.7723,262.8242,238.1325,8.047544,0.0431727,0.44552192,205.3856,12/28.0/2021,2000,g  8.5,4.0
# From MPC 75710
P/2009 B1 (Boattini),e,22.2254,297.0837,128.8790,6.737423,0.0563590,0.63517669,267.2022,12/28.0/2021,2000,g 13.0,4.0
# From MPC 66466
C/2009 G1 (STEREO),e,108.6611,120.4795,175.4637,450.8735,0.0001029,0.99747475,0.0000,04/16.9512/2009,2000,g  9.0,4.0
# From MPC 75710
P/2009 O3 (Hill),e,16.2828,183.6913,154.4549,7.767987,0.0455241,0.68786812,209.3792,12/28.0/2021,2000,g 12.5,4.0
# From MPC 68902
P/2009 Q5 (McNaught),e,40.9886,160.2800,209.0546,7.433327,0.0486328,0.60946411,218.5191,12/28.0/2021,2000,g 10.0,4.0
# From MPC112389
P/2009 T2 (La Sagra),e,27.5841,215.8572,216.3507,7.721449,0.0459363,0.76581034,201.3408,12/28.0/2021,2000,g 14.0,4.0
# From MPC105235
P/2009 WX51 (Catalina),e,9.5935,31.6252,118.1831,3.082217,0.1821417,0.73998369,74.0828,12/28.0/2021,2000,g 19.0,2.0
# From MPC 74247
P/2009 Y2 (Kowalski),e,29.9450,262.0309,172.1337,6.550186,0.0587927,0.63633272,254.0982,12/28.0/2021,2000,g 13.0,4.0
# From MPC 75711
P/2010 A3 (Hill),e,14.8241,63.7465,42.2125,6.081579,0.0657173,0.73359670,283.0921,12/28.0/2021,2000,g 14.0,4.0
# From MPC 75008
P/2010 C1 (Scotti),e,9.1282,141.8865,3.5527,7.103925,0.0520543,0.25930373,230.7701,12/28.0/2021,2000,g  9.5,4.0
# From MPC 75008
P/2010 D2 (WISE),e,57.0894,319.8883,119.9892,6.718649,0.0565954,0.45119284,245.6129,12/28.0/2021,2000,g 16.0,4.0
# From MPC 75009
P/2010 E2 (Jarnac),e,15.3886,177.8214,8.3409,8.639860,0.0388100,0.71959984,166.5827,12/28.0/2021,2000,g 14.0,4.0
# From MPC 72851
P/2010 H2 (Vales),e,14.2758,64.1915,128.0505,3.832978,0.1313408,0.19612058,206.4528,12/28.0/2021,2000,g  6.0,4.0
# From MPC 70361
P/2010 H3 (SOHO),e,23.0637,77.0842,26.1613,3.037002,0.1862244,0.98535547,0.0000,02/07.9370/2021,2000,g 20.0,2.0
# From MPC 73463
P/2010 H4 (Scotti),e,2.3180,44.7324,179.4599,6.595258,0.0581911,0.26663522,245.2927,12/28.0/2021,2000,g 10.5,4.0
# From MPC 74637
P/2010 H5 (Scotti),e,14.0596,24.7993,175.0136,7.166094,0.0513784,0.15276807,220.5479,12/28.0/2021,2000,g 13.0,2.0
# From MPC 98558
P/2010 J3 (McMillan),e,13.2785,106.4369,157.5981,8.976206,0.0366492,0.72634835,151.7168,12/28.0/2021,2000,g 11.0,4.0
# From MPC 84315
P/2010 JC81 (WISE),e,38.7867,30.8576,12.4240,8.107869,0.0426918,0.77742234,166.6365,12/28.0/2021,2000,g  9.0,4.0
# From MPC 74248
P/2010 T2 (PANSTARRS),e,7.8889,58.7324,353.0827,5.544866,0.0754862,0.32199929,298.6353,12/28.0/2021,2000,g 11.5,4.0
# From MPC 98558
P/2010 TO20 (LINEAR-Grauer),e,2.4788,43.2898,267.0794,5.831793,0.0699844,0.05535334,336.8935,12/28.0/2021,2000,g  9.0,4.0
# From MPC 82316
P/2010 U1 (Boattini),e,8.2169,280.6956,86.0775,6.506345,0.0593880,0.24881734,258.3285,12/28.0/2021,2000,g  9.5,4.0
# From MPEC 2021-R75
C/2010 U3 (Boattini),e,55.5393,43.0077,88.0424,2423,0.0000083,0.99651478,0.0000,02/25.2174/2019,2000,g  1.0,4.0
# From MPC 79021
P/2010 UH55 (Spacewatch),e,8.0396,232.9247,225.1566,6.653887,0.0574237,0.56343858,224.9648,12/28.0/2021,2000,g 11.0,4.0
# From MPC 75009
P/2010 WK (LINEAR),e,11.4015,11.3314,40.9671,5.761978,0.0712601,0.69021486,293.2523,12/28.0/2021,2000,g 14.5,2.0
# From MPC 84021
P/2011 C2 (Gibbs),e,10.8857,12.1228,160.7507,7.413125,0.0488317,0.26893165,178.5092,12/28.0/2021,2000,g  9.0,4.0
# From MPC 79866
P/2011 FR143 (Lemmon),e,15.9774,190.9501,350.0303,6.860886,0.0548446,0.45051381,217.1835,12/28.0/2021,2000,g 14.0,2.0
# From MPC 82317
P/2011 JB15 (Spacewatch-Boattini),e,19.1476,153.5805,111.0727,7.360925,0.0493521,0.31691466,179.0876,12/28.0/2021,2000,g  9.0,4.0
# From MPC 87913
P/2011 N1 (ASH),e,35.7418,77.5859,330.3501,6.247208,0.0631212,0.54448447,221.4770,12/28.0/2021,2000,g 11.5,4.0
# From MPC 75714
P/2011 NO1 (Elenin),e,15.2464,295.8155,263.7500,5.527483,0.0758426,0.77454436,303.1844,12/28.0/2021,2000,g 15.0,4.0
# From MPC 82318
